[{"OBJECT_NAME":"VSP RF C1","OBJECT_ID":"2024-043AQ","EPOCH":"2026-03-09T21:56:05.358624","MEAN_MOTION":15.29409663,"ECCENTRICITY":0.00093965,"INCLINATION":97.5441,"RA_OF_ASC_NODE":205.1792,"ARG_OF_PERICENTER":219.6172,"MEAN_ANOMALY":140.4382,"EPHEMERIS_TYPE":0,"CLASSIFICATION_TYPE":"U","NORAD_CAT_ID":59136,"ELEMENT_SET_NO":999,"REV_AT_EPOCH":11190,"BSTAR":0.00026222052,"MEAN_MOTION_DOT":7.409e-5,"MEAN_MOTION_DDOT":0},{"OBJECT_NAME":"STARLINK-34347","OBJECT_ID":"2025-117Z","EPOCH":"2026-03-09T07:05:43.510272","MEAN_MOTION":15.30199182,"ECCENTRICITY":0.00011843,"INCLINATION":53.1608,"RA_OF_ASC_NODE":41.5509,"ARG_OF_PERICENTER":103.8437,"MEAN_ANOMALY":256.2696,"EPHEMERIS_TYPE":0,"CLASSIFICATION_TYPE":"U","NORAD_CAT_ID":64226,"ELEMENT_SET_NO":999,"REV_AT_EPOCH":4446,"BSTAR":0.00088939863,"MEAN_MOTION_DOT":0.00026074,"MEAN_MOTION_DDOT":0}]
